{
  "type": "FeatureCollection",
  "features": [
    {
      "type": "Feature",
      "properties": {
        "norad_id": 31088,
        "name": "FENGYUN 1C DEB",
        "group": "fengyun-1c-debris",
        "lat": 3.564830980467968,
        "lon": 49.620781828195184,
        "alt_km": 784.9961606193856,
        "timestamp": "2025-12-15T19:00:45.637180+00:00",
        "meta_object_name": "FENGYUN 1C DEB",
        "meta_object_id": "1999-025BGJ",
        "meta_epoch": "2025-12-13T23:52:00.054048",
        "meta_mean_motion": 14.28711885,
        "meta_eccentricity": 0.00284722,
        "meta_inclination": 99.4118,
        "meta_ra_of_asc_node": 48.2749,
        "meta_arg_of_pericenter": 57.9563,
        "meta_mean_anomaly": 64.6257,
        "meta_ephemeris_type": 0,
        "meta_classification_type": "U",
        "meta_norad_cat_id": 31088,
        "meta_element_set_no": 999,
        "meta_rev_at_epoch": 96567,
        "meta_bstar": 0.0018888091,
        "meta_mean_motion_dot": 4.725e-05,
        "meta_mean_motion_ddot": 0,
        "tle_line1": "1 31088U 99025BGJ 25347.99444507  .00004725  00000+0  18888-2 0  9990",
        "tle_line2": "2 31088  99.4118  48.2749 0028472  57.9563  64.6257 14.28711885965674"
      },
      "geometry": {
        "type": "Point",
        "coordinates": [
          49.620781828195184,
          3.564830980467968
        ]
      }
    },
    {
      "type": "Feature",
      "properties": {
        "norad_id": 31089,
        "name": "FENGYUN 1C DEB",
        "group": "fengyun-1c-debris",
        "lat": 15.82151927842973,
        "lon": 129.16723350567102,
        "alt_km": 1084.567494414332,
        "timestamp": "2025-12-15T19:00:45.637193+00:00",
        "meta_object_name": "FENGYUN 1C DEB",
        "meta_object_id": "1999-025BGK",
        "meta_epoch": "2025-12-14T21:11:30.881184",
        "meta_mean_motion": 13.88328664,
        "meta_eccentricity": 0.02060231,
        "meta_inclination": 98.9495,
        "meta_ra_of_asc_node": 130.8538,
        "meta_arg_of_pericenter": 205.6912,
        "meta_mean_anomaly": 308.4478,
        "meta_ephemeris_type": 0,
        "meta_classification_type": "U",
        "meta_norad_cat_id": 31089,
        "meta_element_set_no": 999,
        "meta_rev_at_epoch": 68089,
        "meta_bstar": 0.00085957106,
        "meta_mean_motion_dot": 1.177e-05,
        "meta_mean_motion_ddot": 0,
        "tle_line1": "1 31089U 99025BGK 25348.88299631  .00001177  00000+0  85957-3 0  9996",
        "tle_line2": "2 31089  98.9495 130.8538 0206023 205.6912 308.4478 13.88328664680897"
      },
      "geometry": {
        "type": "Point",
        "coordinates": [
          129.16723350567102,
          15.82151927842973
        ]
      }
    },
    {
      "type": "Feature",
      "properties": {
        "norad_id": 31090,
        "name": "FENGYUN 1C DEB",
        "group": "fengyun-1c-debris",
        "lat": -64.45157410845972,
        "lon": -104.84058954983422,
        "alt_km": 492.2946101671241,
        "timestamp": "2025-12-15T19:00:45.637203+00:00",
        "meta_object_name": "FENGYUN 1C DEB",
        "meta_object_id": "1999-025BGL",
        "meta_epoch": "2025-12-14T05:56:05.839584",
        "meta_mean_motion": 15.33626883,
        "meta_eccentricity": 0.00549338,
        "meta_inclination": 98.9826,
        "meta_ra_of_asc_node": 92.6081,
        "meta_arg_of_pericenter": 127.44,
        "meta_mean_anomaly": 233.1854,
        "meta_ephemeris_type": 0,
        "meta_classification_type": "U",
        "meta_norad_cat_id": 31090,
        "meta_element_set_no": 999,
        "meta_rev_at_epoch": 861,
        "meta_bstar": 0.0018902237,
        "meta_mean_motion_dot": 0.00064867,
        "meta_mean_motion_ddot": 0,
        "tle_line1": "1 31090U 99025BGL 25348.24728981  .00064867  00000+0  18902-2 0  9993",
        "tle_line2": "2 31090  98.9826  92.6081 0054933 127.4400 233.1854 15.33626883  8611"
      },
      "geometry": {
        "type": "Point",
        "coordinates": [
          -104.84058954983422,
          -64.45157410845972
        ]
      }
    },
    {
      "type": "Feature",
      "properties": {
        "norad_id": 31091,
        "name": "FENGYUN 1C DEB",
        "group": "fengyun-1c-debris",
        "lat": -61.981756300824465,
        "lon": 128.8638450232894,
        "alt_km": 1012.6840580474072,
        "timestamp": "2025-12-15T19:00:45.637214+00:00",
        "meta_object_name": "FENGYUN 1C DEB",
        "meta_object_id": "1999-025BGM",
        "meta_epoch": "2025-12-10T04:47:50.827776",
        "meta_mean_motion": 13.54141266,
        "meta_eccentricity": 0.02908089,
        "meta_inclination": 99.2244,
        "meta_ra_of_asc_node": 321.4211,
        "meta_arg_of_pericenter": 335.4456,
        "meta_mean_anomaly": 23.3063,
        "meta_ephemeris_type": 0,
        "meta_classification_type": "U",
        "meta_norad_cat_id": 31091,
        "meta_element_set_no": 999,
        "meta_rev_at_epoch": 61605,
        "meta_bstar": 0.0012568098,
        "meta_mean_motion_dot": 1.075e-05,
        "meta_mean_motion_ddot": 0,
        "tle_line1": "1 31091U 99025BGM 25344.19989384  .00001075  00000+0  12568-2 0  9994",
        "tle_line2": "2 31091  99.2244 321.4211 0290808 335.4456  23.3063 13.54141266616055"
      },
      "geometry": {
        "type": "Point",
        "coordinates": [
          128.8638450232894,
          -61.981756300824465
        ]
      }
    },
    {
      "type": "Feature",
      "properties": {
        "norad_id": 31092,
        "name": "FENGYUN 1C DEB",
        "group": "fengyun-1c-debris",
        "lat": 11.629779415837296,
        "lon": -72.40666897095686,
        "alt_km": 893.4514932207103,
        "timestamp": "2025-12-15T19:00:45.637224+00:00",
        "meta_object_name": "FENGYUN 1C DEB",
        "meta_object_id": "1999-025BGN",
        "meta_epoch": "2025-12-14T06:32:26.908224",
        "meta_mean_motion": 13.46538105,
        "meta_eccentricity": 0.03266275,
        "meta_inclination": 99.7226,
        "meta_ra_of_asc_node": 104.0946,
        "meta_arg_of_pericenter": 132.9015,
        "meta_mean_anomaly": 230.0032,
        "meta_ephemeris_type": 0,
        "meta_classification_type": "U",
        "meta_norad_cat_id": 31092,
        "meta_element_set_no": 999,
        "meta_rev_at_epoch": 91902,
        "meta_bstar": 0.0020408728,
        "meta_mean_motion_dot": 1.66e-05,
        "meta_mean_motion_ddot": 0,
        "tle_line1": "1 31092U 99025BGN 25348.27253366  .00001660  00000+0  20409-2 0  9995",
        "tle_line2": "2 31092  99.7226 104.0946 0326627 132.9015 230.0032 13.46538105919020"
      },
      "geometry": {
        "type": "Point",
        "coordinates": [
          -72.40666897095686,
          11.629779415837296
        ]
      }
    },
    {
      "type": "Feature",
      "properties": {
        "norad_id": 31093,
        "name": "FENGYUN 1C DEB",
        "group": "fengyun-1c-debris",
        "lat": -21.83993652389374,
        "lon": -168.00585513243755,
        "alt_km": 1048.069561021739,
        "timestamp": "2025-12-15T19:00:45.637234+00:00",
        "meta_object_name": "FENGYUN 1C DEB",
        "meta_object_id": "1999-025BGP",
        "meta_epoch": "2025-12-13T20:09:40.263840",
        "meta_mean_motion": 13.80633666,
        "meta_eccentricity": 0.02082237,
        "meta_inclination": 98.5948,
        "meta_ra_of_asc_node": 186.7421,
        "meta_arg_of_pericenter": 220.1991,
        "meta_mean_anomaly": 138.3605,
        "meta_ephemeris_type": 0,
        "meta_classification_type": "U",
        "meta_norad_cat_id": 31093,
        "meta_element_set_no": 999,
        "meta_rev_at_epoch": 94522,
        "meta_bstar": 0.00056404176,
        "meta_mean_motion_dot": 6.58e-06,
        "meta_mean_motion_ddot": 0,
        "tle_line1": "1 31093U 99025BGP 25347.84004935  .00000658  00000+0  56404-3 0  9995",
        "tle_line2": "2 31093  98.5948 186.7421 0208223 220.1991 138.3605 13.80633666945221"
      },
      "geometry": {
        "type": "Point",
        "coordinates": [
          -168.00585513243755,
          -21.83993652389374
        ]
      }
    },
    {
      "type": "Feature",
      "properties": {
        "norad_id": 31094,
        "name": "FENGYUN 1C DEB",
        "group": "fengyun-1c-debris",
        "lat": -25.29396642166238,
        "lon": -138.21355312495274,
        "alt_km": 857.652301067209,
        "timestamp": "2025-12-15T19:00:45.637244+00:00",
        "meta_object_name": "FENGYUN 1C DEB",
        "meta_object_id": "1999-025BGQ",
        "meta_epoch": "2025-12-13T20:53:24.077184",
        "meta_mean_motion": 14.02049581,
        "meta_eccentricity": 0.01064772,
        "meta_inclination": 98.8567,
        "meta_ra_of_asc_node": 215.6939,
        "meta_arg_of_pericenter": 43.8627,
        "meta_mean_anomaly": 317.0933,
        "meta_ephemeris_type": 0,
        "meta_classification_type": "U",
        "meta_norad_cat_id": 31094,
        "meta_element_set_no": 999,
        "meta_rev_at_epoch": 95635,
        "meta_bstar": 0.0018512913,
        "meta_mean_motion_dot": 2.928e-05,
        "meta_mean_motion_ddot": 0,
        "tle_line1": "1 31094U 99025BGQ 25347.87041756  .00002928  00000+0  18513-2 0  9991",
        "tle_line2": "2 31094  98.8567 215.6939 0106477  43.8627 317.0933 14.02049581956350"
      },
      "geometry": {
        "type": "Point",
        "coordinates": [
          -138.21355312495274,
          -25.29396642166238
        ]
      }
    }
  ]
}